{
    "links": {
        "self": "http://www.neowsapp.com/rest/v1/neo/3836166?api_key=iIulBulltgU6a56xZRHN4H3l9WmuAYTsLGpBGhQ2"
    },
    "id": "3836166",
    "neo_reference_id": "3836166",
    "name": "(2018 VL6)",
    "designation": "2018 VL6",
    "nasa_jpl_url": "http://ssd.jpl.nasa.gov/sbdb.cgi?sstr=3836166",
    "absolute_magnitude_h": 23.1,
    "estimated_diameter": {
        "kilometers": {
            "estimated_diameter_min": 0.063760979,
            "estimated_diameter_max": 0.1425738833
        },
        "meters": {
            "estimated_diameter_min": 63.7609789875,
            "estimated_diameter_max": 142.5738833281
        },
        "miles": {
            "estimated_diameter_min": 0.0396192233,
            "estimated_diameter_max": 0.0885912765
        },
        "feet": {
            "estimated_diameter_min": 209.1895703015,
            "estimated_diameter_max": 467.7620993781
        }
    },
    "is_potentially_hazardous_asteroid": false,
    "close_approach_data": [
        {
            "close_approach_date": "2018-11-09",
            "close_approach_date_full": "2018-Nov-09 11:19",
            "epoch_date_close_approach": 1541762340000,
            "relative_velocity": {
                "kilometers_per_second": "19.2269009755",
                "kilometers_per_hour": "69216.8435118864",
                "miles_per_hour": "43008.6547921496"
            },
            "miss_distance": {
                "astronomical": "0.1322186266",
                "lunar": "51.4330457474",
                "kilometers": "19779624.913685342",
                "miles": "12290489.0038160396"
            },
            "orbiting_body": "Earth"
        }
    ],
    "orbital_data": {
        "orbit_id": "2",
        "orbit_determination_date": "2020-09-11 07:41:26",
        "first_observation_date": "2018-11-01",
        "last_observation_date": "2018-11-11",
        "data_arc_in_days": 10,
        "observations_used": 23,
        "orbit_uncertainty": "9",
        "minimum_orbit_intersection": ".0824025",
        "jupiter_tisserand_invariant": "3.786",
        "epoch_osculation": "2458428.5",
        "eccentricity": ".6702281797875121",
        "semi_major_axis": "1.750639866714458",
        "inclination": "19.1060200801593",
        "ascending_node_longitude": "29.45117589272694",
        "orbital_period": "846.0453605866737",
        "perihelion_distance": ".577311695382974",
        "perihelion_argument": "108.2674892489682",
        "aphelion_distance": "2.923968038045943",
        "perihelion_time": "2458483.877204100754",
        "mean_anomaly": "336.4364957188024",
        "mean_motion": ".4255091000680684",
        "equinox": "J2000",
        "orbit_class": {
            "orbit_class_type": "APO",
            "orbit_class_description": "Near-Earth asteroid orbits which cross the Earth’s orbit similar to that of 1862 Apollo",
            "orbit_class_range": "a (semi-major axis) > 1.0 AU; q (perihelion) < 1.017 AU"
        }
    },
    "is_sentry_object": false
}